ONEWEB-0379             
1 49305U 21090AC  25269.13748486  .00000129  00000+0  31234-3 0  9995
2 49305  87.9074 342.2892 0001721  96.3091 263.8234 13.14501699192871
ONEWEB-0380             
1 49306U 21090AD  25269.26686662  .00000161  00000+0  37061-3 0  9997
2 49306  87.9282 357.4644 0001989  98.1783 261.9575 13.19726479191618
ONEWEB-0381             
1 49307U 21090AE  25269.14591474  .00000026  00000+0  31039-4 0  9991
2 49307  87.9248 327.0909 0002026  90.5140 269.6226 13.20771225194975
ONEWEB-0382             
1 49308U 21090AF  25269.13327572  .00000112  00000+0  24449-3 0  9999
2 49308  87.9253 327.0842 0001904  87.6600 272.4752 13.20772019194967
ONEWEB-0383             
1 49309U 21090AG  25269.28337352  .00000237  00000+0  60498-3 0  9995
2 49309  87.9082 342.2415 0001701  95.4849 264.6475 13.14504858192926
ONEWEB-0384             
1 49310U 21090AH  25269.20389614  .00000091  00000+0  19301-3 0  9992
2 49310  87.9271 327.0971 0001861  81.4794 278.6550 13.20791794194988
ONEWEB-0385             
1 49311U 21090AJ  25269.20115036  .00000119  00000+0  26009-3 0  9992
2 49311  87.9248 327.0818 0001899  92.8318 267.3032 13.20770489194957
ONEWEB-0386             
1 49312U 21090AK  25269.14274834  .00000012  00000+0 -27595-5 0  9994
2 49312  87.9257 327.0703 0001818  88.2021 271.9321 13.20772243194965
